STARLINK-2408_new
1 17823C 21018AN  21326.17151839  .00005550  00000-0  37175-3 0  3260
2 17823  53.0551  92.9728 0001423  69.6193 350.8410 15.06400944    11
STARLINK-2408_old
1 27823C 21018AN  21325.15224987  .00003138  00000-0  21028-3 0  3251
2 27823  53.0545  97.5482 0001419  71.9292 217.9485 15.06391758    10
